ONEWEB-0694             
1 56722U 23068N   23280.85814202  .00002865  00000+0  39049-3 0  9994
2 56722  86.7198  82.9268 0016996  92.6216 267.6950 14.78256868 20883
ONEWEB-0696             
1 56723U 23068P   23280.86219303 -.00007052  00000+0 -15379-1 0  9990
2 56723  88.0990  94.6257 0003207  76.2543 283.8952 13.28993879 20032
ONEWEB-0703             
1 56724U 23068Q   23280.98819708 -.00000019  00000+0 -84921-4 0  9997
2 56724  87.8500  95.0764 0003142  80.4656 279.6829 13.15523338 20687
ONEWEB-0721             
1 56725U 23068R   23280.95128524  .00003617  00000+0  43864-3 0  9999
2 56725  86.6725  81.8185 0013177  90.1070 270.1663 14.83264073 21644
